{"fetched_at":"2026-07-22T07:09:49.041Z","source":"https://celestrak.org/NORAD/elements/gp.php?NAME=ICEYE&FORMAT=JSON","constellation":"iceye","records":[{"OBJECT_NAME":"ICEYE-X2","OBJECT_ID":"2018-099AU","EPOCH":"2026-07-21T14:50:50.250624","CLASSIFICATION_TYPE":"U","MEAN_MOTION":15.1808978,"ECCENTRICITY":0.0010577,"INCLINATION":97.4337,"RA_OF_ASC_NODE":255.8577,"ARG_OF_PERICENTER":173.08,"MEAN_ANOMALY":187.0582,"EPHEMERIS_TYPE":0,"NORAD_CAT_ID":43800,"ELEMENT_SET_NO":999,"REV_AT_EPOCH":41804,"BSTAR":0.00031346236,"MEAN_MOTION_DOT":0.00006332,"MEAN_MOTION_DDOT":0},{"OBJECT_NAME":"ICEYE-X5","OBJECT_ID":"2019-038C","EPOCH":"2026-07-21T14:17:47.382720","CLASSIFICATION_TYPE":"U","MEAN_MOTION":15.58175295,"ECCENTRICITY":0.00076864,"INCLINATION":97.8667,"RA_OF_ASC_NODE":260.8232,"ARG_OF_PERICENTER":132.2687,"MEAN_ANOMALY":227.9221,"EPHEMERIS_TYPE":0,"NORAD_CAT_ID":44389,"ELEMENT_SET_NO":999,"REV_AT_EPOCH":38831,"BSTAR":0.00059668987,"MEAN_MOTION_DOT":0.00045114,"MEAN_MOTION_DDOT":0},{"OBJECT_NAME":"ICEYE-X4","OBJECT_ID":"2019-038D","EPOCH":"2026-07-21T14:33:26.371008","CLASSIFICATION_TYPE":"U","MEAN_MOTION":15.29972348,"ECCENTRICITY":0.00135153,"INCLINATION":97.8749,"RA_OF_ASC_NODE":237.5581,"ARG_OF_PERICENTER":175.7866,"MEAN_ANOMALY":184.3489,"EPHEMERIS_TYPE":0,"NORAD_CAT_ID":44390,"ELEMENT_SET_NO":999,"REV_AT_EPOCH":38706,"BSTAR":0.00033916027,"MEAN_MOTION_DOT":0.00009786,"MEAN_MOTION_DDOT":0},{"OBJECT_NAME":"ICEYE-X7","OBJECT_ID":"2020-068L","EPOCH":"2026-07-21T15:08:51.219168","CLASSIFICATION_TYPE":"U","MEAN_MOTION":15.32184469,"ECCENTRICITY":0.00067528,"INCLINATION":97.7514,"RA_OF_ASC_NODE":170.7442,"ARG_OF_PERICENTER":187.6794,"MEAN_ANOMALY":172.4345,"EPHEMERIS_TYPE":0,"NORAD_CAT_ID":46496,"ELEMENT_SET_NO":999,"REV_AT_EPOCH":32006,"BSTAR":0.00030581271,"MEAN_MOTION_DOT":0.00009427,"MEAN_MOTION_DDOT":0},{"OBJECT_NAME":"ICEYE-X6","OBJECT_ID":"2020-068M","EPOCH":"2026-07-21T13:46:01.096320","CLASSIFICATION_TYPE":"U","MEAN_MOTION":15.04688128,"ECCENTRICITY":0.00066338,"INCLINATION":98.0993,"RA_OF_ASC_NODE":197.8958,"ARG_OF_PERICENTER":350.9231,"MEAN_ANOMALY":9.1873,"EPHEMERIS_TYPE":0,"NORAD_CAT_ID":46497,"ELEMENT_SET_NO":999,"REV_AT_EPOCH":31840,"BSTAR":0.00012028918,"MEAN_MOTION_DOT":0.00001625,"MEAN_MOTION_DDOT":0},{"OBJECT_NAME":"ICEYE-X25","OBJECT_ID":"2023-084AH","EPOCH":"2026-07-21T14:10:48.967392","CLASSIFICATION_TYPE":"U","MEAN_MOTION":15.63096706,"ECCENTRICITY":0.00046678,"INCLINATION":97.5918,"RA_OF_ASC_NODE":351.2972,"ARG_OF_PERICENTER":165.2796,"MEAN_ANOMALY":194.8598,"EPHEMERIS_TYPE":0,"NORAD_CAT_ID":56963,"ELEMENT_SET_NO":999,"REV_AT_EPOCH":17334,"BSTAR":0.00029481424,"MEAN_MOTION_DOT":0.00026761,"MEAN_MOTION_DDOT":0},{"OBJECT_NAME":"ICEYE-X31","OBJECT_ID":"2023-174AJ","EPOCH":"2026-07-21T14:59:59.313984","CLASSIFICATION_TYPE":"U","MEAN_MOTION":15.3531206,"ECCENTRICITY":0.00032879,"INCLINATION":97.3763,"RA_OF_ASC_NODE":278.3785,"ARG_OF_PERICENTER":168.6104,"MEAN_ANOMALY":191.5214,"EPHEMERIS_TYPE":0,"NORAD_CAT_ID":58288,"ELEMENT_SET_NO":999,"REV_AT_EPOCH":15003,"BSTAR":0.00045470907,"MEAN_MOTION_DOT":0.00015528,"MEAN_MOTION_DDOT":0},{"OBJECT_NAME":"ICEYE-X34","OBJECT_ID":"2023-174AQ","EPOCH":"2026-07-21T11:53:42.070848","CLASSIFICATION_TYPE":"U","MEAN_MOTION":15.72819284,"ECCENTRICITY":0.0002347,"INCLINATION":97.385,"RA_OF_ASC_NODE":295.5311,"ARG_OF_PERICENTER":231.6659,"MEAN_ANOMALY":128.4394,"EPHEMERIS_TYPE":0,"NORAD_CAT_ID":58294,"ELEMENT_SET_NO":999,"REV_AT_EPOCH":15112,"BSTAR":0.0013815316,"MEAN_MOTION_DOT":0.0019031,"MEAN_MOTION_DDOT":0},{"OBJECT_NAME":"ICEYE-X35","OBJECT_ID":"2023-174AY","EPOCH":"2026-07-21T14:58:46.751808","CLASSIFICATION_TYPE":"U","MEAN_MOTION":15.55625396,"ECCENTRICITY":0.0007165,"INCLINATION":97.3773,"RA_OF_ASC_NODE":288.2275,"ARG_OF_PERICENTER":86.5247,"MEAN_ANOMALY":273.6826,"EPHEMERIS_TYPE":0,"NORAD_CAT_ID":58302,"ELEMENT_SET_NO":999,"REV_AT_EPOCH":15069,"BSTAR":0.0006526858,"MEAN_MOTION_DOT":0.00044897,"MEAN_MOTION_DDOT":0},{"OBJECT_NAME":"ICEYE-X38","OBJECT_ID":"2024-043C","EPOCH":"2026-07-21T15:21:44.895744","CLASSIFICATION_TYPE":"U","MEAN_MOTION":15.13125567,"ECCENTRICITY":0.000178,"INCLINATION":97.8443,"RA_OF_ASC_NODE":347.3494,"ARG_OF_PERICENTER":0.8413,"MEAN_ANOMALY":359.282,"EPHEMERIS_TYPE":0,"NORAD_CAT_ID":59100,"ELEMENT_SET_NO":999,"REV_AT_EPOCH":11688,"BSTAR":0.00020387773,"MEAN_MOTION_DOT":0.00003542,"MEAN_MOTION_DDOT":0},{"OBJECT_NAME":"ICEYE-X37","OBJECT_ID":"2024-043E","EPOCH":"2026-07-21T14:13:27.505344","CLASSIFICATION_TYPE":"U","MEAN_MOTION":15.06322816,"ECCENTRICITY":0.00139857,"INCLINATION":97.8353,"RA_OF_ASC_NODE":340.1464,"ARG_OF_PERICENTER":250.271,"MEAN_ANOMALY":109.7008,"EPHEMERIS_TYPE":0,"NORAD_CAT_ID":59102,"ELEMENT_SET_NO":999,"REV_AT_EPOCH":13026,"BSTAR":0.00024431385,"MEAN_MOTION_DOT":0.00003533,"MEAN_MOTION_DDOT":0},{"OBJECT_NAME":"ICEYE-X36","OBJECT_ID":"2024-043F","EPOCH":"2026-07-21T13:49:33.170304","CLASSIFICATION_TYPE":"U","MEAN_MOTION":15.07267364,"ECCENTRICITY":0.00057984,"INCLINATION":97.8411,"RA_OF_ASC_NODE":341.2738,"ARG_OF_PERICENTER":188.5641,"MEAN_ANOMALY":171.5488,"EPHEMERIS_TYPE":0,"NORAD_CAT_ID":59103,"ELEMENT_SET_NO":999,"REV_AT_EPOCH":13032,"BSTAR":0.00021365578,"MEAN_MOTION_DOT":0.00003157,"MEAN_MOTION_DDOT":0},{"OBJECT_NAME":"ICEYE-X43","OBJECT_ID":"2024-149BZ","EPOCH":"2026-07-21T04:32:51.192960","CLASSIFICATION_TYPE":"U","MEAN_MOTION":14.99778992,"ECCENTRICITY":0.00063388,"INCLINATION":97.6786,"RA_OF_ASC_NODE":278.6947,"ARG_OF_PERICENTER":321.5271,"MEAN_ANOMALY":38.55,"EPHEMERIS_TYPE":0,"NORAD_CAT_ID":60539,"ELEMENT_SET_NO":999,"REV_AT_EPOCH":10521,"BSTAR":0.000096655561,"MEAN_MOTION_DOT":0.00001136,"MEAN_MOTION_DDOT":0},{"OBJECT_NAME":"ICEYE-X39","OBJECT_ID":"2024-149CG","EPOCH":"2026-07-21T11:57:38.253888","CLASSIFICATION_TYPE":"U","MEAN_MOTION":15.00105977,"ECCENTRICITY":0.00067038,"INCLINATION":97.6802,"RA_OF_ASC_NODE":279.0625,"ARG_OF_PERICENTER":28.6795,"MEAN_ANOMALY":331.4796,"EPHEMERIS_TYPE":0,"NORAD_CAT_ID":60546,"ELEMENT_SET_NO":999,"REV_AT_EPOCH":10526,"BSTAR":0.00023718674,"MEAN_MOTION_DOT":0.00002899,"MEAN_MOTION_DDOT":0},{"OBJECT_NAME":"ICEYE-X33","OBJECT_ID":"2024-149CJ","EPOCH":"2026-07-21T12:04:46.067808","CLASSIFICATION_TYPE":"U","MEAN_MOTION":15.00922487,"ECCENTRICITY":0.00018498,"INCLINATION":97.738,"RA_OF_ASC_NODE":281.4761,"ARG_OF_PERICENTER":66.3966,"MEAN_ANOMALY":293.7452,"EPHEMERIS_TYPE":0,"NORAD_CAT_ID":60548,"ELEMENT_SET_NO":999,"REV_AT_EPOCH":10535,"BSTAR":0.00026481367,"MEAN_MOTION_DOT":0.00003313,"MEAN_MOTION_DDOT":0}]}
