{"epoch":1784710044,"count":18256,"objects":[{"id":"43800","name":"ICEYE-X2","type":"PAYLOAD","l1":"1 43800U 18099AU  26202.61863716  .00006332  00000-0  31346-3 0  9996","l2":"2 43800  97.4337 255.8577 0010577 173.0800 187.0582 15.18089780418043"},{"id":"44389","name":"ICEYE-X5","type":"PAYLOAD","l1":"1 44389U 19038C   26202.59568730  .00045114  00000-0  59669-3 0  9997","l2":"2 44389  97.8667 260.8232 0007686 132.2687 227.9221 15.58175295388318"},{"id":"44390","name":"ICEYE-X4","type":"PAYLOAD","l1":"1 44390U 19038D   26202.60655522  .00009786  00000-0  33916-3 0  9999","l2":"2 44390  97.8749 237.5581 0013515 175.7866 184.3489 15.29972348387063"},{"id":"46496","name":"ICEYE-X7","type":"PAYLOAD","l1":"1 46496U 20068L   26202.63114837  .00009427  00000-0  30581-3 0  9992","l2":"2 46496  97.7514 170.7442 0006753 187.6794 172.4345 15.32184469320062"},{"id":"46497","name":"ICEYE-X6","type":"PAYLOAD","l1":"1 46497U 20068M   26202.57362380  .00001625  00000-0  12029-3 0  9993","l2":"2 46497  98.0993 197.8958 0006634 350.9231   9.1873 15.04688128318406"},{"id":"56963","name":"ICEYE-X25","type":"PAYLOAD","l1":"1 56963U 23084AH  26202.59084453  .00026761  00000-0  29481-3 0  9995","l2":"2 56963  97.5918 351.2972 0004668 165.2796 194.8598 15.63096706173344"},{"id":"58288","name":"ICEYE-X31","type":"PAYLOAD","l1":"1 58288U 23174AJ  26202.62499206  .00015528  00000-0  45471-3 0  9993","l2":"2 58288  97.3763 278.3785 0003288 168.6104 191.5214 15.35312060150033"},{"id":"58294","name":"ICEYE-X34","type":"PAYLOAD","l1":"1 58294U 23174AQ  26202.49562582  .00190310  00000-0  13815-2 0  9992","l2":"2 58294  97.3850 295.5311 0002347 231.6659 128.4394 15.72819284151124"},{"id":"58302","name":"ICEYE-X35","type":"PAYLOAD","l1":"1 58302U 23174AY  26202.62415222  .00044897  00000-0  65269-3 0  9994","l2":"2 58302  97.3773 288.2275 0007165  86.5247 273.6826 15.55625396150693"},{"id":"59100","name":"ICEYE-X38","type":"PAYLOAD","l1":"1 59100U 24043C   26202.64010296  .00003542  00000-0  20388-3 0  9996","l2":"2 59100  97.8443 347.3494 0001780   0.8413 359.2820 15.13125567116887"},{"id":"59102","name":"ICEYE-X37","type":"PAYLOAD","l1":"1 59102U 24043E   26202.59267946  .00003533  00000-0  24431-3 0  9991","l2":"2 59102  97.8353 340.1464 0013986 250.2710 109.7008 15.06322816130261"},{"id":"59103","name":"ICEYE-X36","type":"PAYLOAD","l1":"1 59103U 24043F   26202.57607836  .00003157  00000-0  21366-3 0  9992","l2":"2 59103  97.8411 341.2738 0005798 188.5641 171.5488 15.07267364130324"},{"id":"60539","name":"ICEYE-X43","type":"PAYLOAD","l1":"1 60539U 24149BZ  26202.18948140  .00001136  00000-0  96656-4 0  9997","l2":"2 60539  97.6786 278.6947 0006339 321.5271  38.5500 14.99778992105218"},{"id":"60546","name":"ICEYE-X39","type":"PAYLOAD","l1":"1 60546U 24149CG  26202.49835942  .00002899  00000-0  23719-3 0  9990","l2":"2 60546  97.6802 279.0625 0006704  28.6795 331.4796 15.00105977105262"},{"id":"60548","name":"ICEYE-X33","type":"PAYLOAD","l1":"1 60548U 24149CJ  26202.50331097  .00003313  00000-0  26481-3 0  9997","l2":"2 60548  97.7380 281.4761 0001850  66.3966 293.7452 15.00922487105352"}]}